AL MUNTHER              
1 63240U 25052AG  26068.64540749  .00017933  00000+0  65015-3 0  9992
2 63240  97.4001 323.9152 0008027 130.7043 229.4895 15.28381521 54798
STARLINK-35675          
1 67188U 25303AB  26068.05938489  .00026824  00000+0  98100-3 0  9993
2 67188  42.9996 314.7172 0001603 272.1324  87.9344 15.27571478 12631
